NORAD_CAT_ID,OBJECT_NAME,OBJECT_TYPE,EPOCH,MEAN_MOTION,ECCENTRICITY,INCLINATION,RA_OF_ASC_NODE,ARG_OF_PERICENTER,MEAN_ANOMALY,BSTAR,MEAN_MOTION_DOT,MEAN_MOTION_DDOT,TLE_LINE0,TLE_LINE1,TLE_LINE2,SEMIMAJOR_AXIS,PERIOD,APOGEE,PERIGEE,DECAYED
53775.0,STARLINK-4722,PAYLOAD,2023-12-06 08:05:38,15.08850032,0.0001511,53.2181,15.0201,93.0694,267.0471,0.0011291,0.00017732,0.0,0 STARLINK-4722,1 53775U 22111C   23340.33724616  .00017732  00000-0  11291-2 0  9994,2 53775  53.2181  15.0201 0001511  93.0694 267.0471 15.08850032 68437,6917.85,95.437,540.76,538.669,0.0
53775.0,STARLINK-4722,PAYLOAD,2023-12-07 01:34:52,15.0884353,0.0001702,53.2185,11.7532,89.2265,270.8922,0.00049869,7.658e-05,0.0,0 STARLINK-4722,1 53775U 22111C   23341.06588803  .00007658  00000-0  49869-3 0  9990,2 53775  53.2185  11.7532 0001702  89.2265 270.8922 15.08843530 68544,6917.87,95.437,540.912,538.557,0.0
53775.0,STARLINK-4722,PAYLOAD,2023-12-07 09:31:48,15.08842195,0.0001507,53.2177,10.2617,87.5328,272.5837,-0.00016553,-2.922e-05,0.0,0 STARLINK-4722,1 53775U 22111C   23341.39708961 -.00002922  00000-0 -16553-3 0  9990,2 53775  53.2177  10.2617 0001507  87.5328 272.5837 15.08842195 68592,6917.874,95.437,540.781,538.696,0.0
53775.0,STARLINK-4722,PAYLOAD,2023-12-08 10:57:58,15.0884215,0.0001464,53.2182,5.5039,83.9791,276.1368,7.9051e-05,9.7e-06,0.0,0 STARLINK-4722,1 53775U 22111C   23342.45693079  .00000970  00000-0  79051-4 0  9993,2 53775  53.2182   5.5039 0001464  83.9791 276.1368 15.08842150 68757,6917.874,95.437,540.752,538.726,0.0
53775.0,STARLINK-4722,PAYLOAD,2023-12-09 10:48:45,15.0884458,0.0001494,53.2186,1.0424,83.5231,276.5932,0.00012384,1.684e-05,0.0,0 STARLINK-4722,1 53775U 22111C   23343.45052905  .00001684  00000-0  12384-3 0  9999,2 53775  53.2186   1.0424 0001494  83.5231 276.5932 15.08844580 69715,6917.866,95.437,540.765,538.698,0.0
53775.0,STARLINK-4722,PAYLOAD,2023-12-10 10:39:32,15.08843515,0.0001519,53.2186,356.5812,78.8528,281.2635,3.1218e-05,2.09e-06,0.0,0 STARLINK-4722,1 53775U 22111C   23344.44413121  .00000209  00000-0  31218-4 0  9990,2 53775  53.2186 356.5812 0001519  78.8528 281.2635 15.08843515 69055,6917.87,95.437,540.785,538.684,0.0
53775.0,STARLINK-4722,PAYLOAD,2023-12-11 07:19:33,15.08844886,0.0001477,53.2184,352.7148,84.604,275.5121,3.1433e-05,2.12e-06,0.0,0 STARLINK-4722,1 53775U 22111C   23345.30524838  .00000212  00000-0  31433-4 0  9997,2 53775  53.2184 352.7148 0001477  84.6040 275.5121 15.08844886 69991,6917.865,95.437,540.752,538.709,0.0
53775.0,STARLINK-4722,PAYLOAD,2023-12-12 03:59:34,15.08838135,0.0001579,53.2183,348.8486,102.0,258.1169,3.6475e-05,2.93e-06,0.0,0 STARLINK-4722,1 53775U 22111C   23346.16637066  .00000293  00000-0  36475-4 0  9990,2 53775  53.2183 348.8486 0001579 102.0000 258.1169 15.08838135 69310,6917.886,95.438,540.843,538.659,0.0
53775.0,STARLINK-4722,PAYLOAD,2023-12-12 07:10:20,15.08839345,0.0001575,53.2183,348.2544,100.1661,259.9508,4.8102e-05,4.78e-06,0.0,0 STARLINK-4722,1 53775U 22111C   23346.29885031  .00000478  00000-0  48102-4 0  9996,2 53775  53.2183 348.2544 0001575 100.1661 259.9508 15.08839345 70140,6917.882,95.438,540.837,538.658,0.0
53775.0,STARLINK-4722,PAYLOAD,2023-12-13 05:25:44,15.08836091,0.0001662,53.2187,344.0926,108.2712,251.8461,1.1997e-05,-9.7e-07,0.0,0 STARLINK-4722,1 53775U 22111C   23347.22621436 -.00000097  00000-0  11997-4 0  9997,2 53775  53.2187 344.0926 0001662 108.2712 251.8461 15.08836091 69473,6917.892,95.438,540.907,538.608,0.0
53775.0,STARLINK-4722,PAYLOAD,2023-12-14 05:16:32,15.08836821,0.0001718,53.2188,339.6352,113.4126,246.7046,4.8805e-05,4.89e-06,0.0,0 STARLINK-4722,1 53775U 22111C   23348.21981578  .00000489  00000-0  48805-4 0  9995,2 53775  53.2188 339.6352 0001718 113.4126 246.7046 15.08836821 70437,6917.89,95.438,540.944,538.567,0.0
53775.0,STARLINK-4722,PAYLOAD,2023-12-15 03:31:55,15.08839818,0.0001542,53.2186,335.4711,106.0255,254.0907,9.5088e-05,1.226e-05,0.0,0 STARLINK-4722,1 53775U 22111C   23349.14717406  .00001226  00000-0  95088-4 0  9990,2 53775  53.2186 335.4711 0001542 106.0255 254.0907 15.08839818 69765,6917.881,95.438,540.813,538.679,0.0
53775.0,STARLINK-4722,PAYLOAD,2023-12-15 06:42:41,15.08844206,0.0001412,53.2179,334.8742,84.6737,275.4417,0.00012836,1.756e-05,0.0,0 STARLINK-4722,1 53775U 22111C   23349.27965139  .00001756  00000-0  12836-3 0  9999,2 53775  53.2179 334.8742 0001412  84.6737 275.4417 15.08844206 70599,6917.868,95.437,540.709,538.756,0.0
53775.0,STARLINK-4722,PAYLOAD,2023-12-16 03:22:43,15.08838694,0.0001463,53.2184,331.0079,95.2228,264.8931,3.1824e-05,2.19e-06,0.0,0 STARLINK-4722,1 53775U 22111C   23350.14077887  .00000219  00000-0  31824-4 0  9993,2 53775  53.2184 331.0079 0001463  95.2228 264.8931 15.08838694 69917,6917.884,95.438,540.761,538.737,0.0
53775.0,STARLINK-4722,PAYLOAD,2023-12-16 06:33:29,15.08841453,0.0001562,53.2189,330.4144,88.6418,271.4753,5.9433e-05,6.58e-06,0.0,0 STARLINK-4722,1 53775U 22111C   23350.27325763  .00000658  00000-0  59433-4 0  9999,2 53775  53.2189 330.4144 0001562  88.6418 271.4753 15.08841453 70741,6917.876,95.437,540.822,538.66,0.0
53775.0,STARLINK-4722,PAYLOAD,2023-12-17 04:48:53,15.08850737,0.0001425,53.2174,326.2561,95.0985,265.017,-5.1757e-05,-1.112e-05,0.0,0 STARLINK-4722,1 53775U 22111C   23351.20061627 -.00001112  00000-0 -51757-4 0  9998,2 53775  53.2174 326.2561 0001425  95.0985 265.0170 15.08850737 70073,6917.848,95.437,540.698,538.727,0.0
53775.0,STARLINK-4722,PAYLOAD,2023-12-18 03:04:15,15.08862422,0.0001352,53.2181,322.0902,101.56,258.5544,0.00017799,2.548e-05,0.0,0 STARLINK-4722,1 53775U 22111C   23352.12796095  .00002548  00000-0  17799-3 0  9993,2 53775  53.2181 322.0902 0001352 101.5600 258.5544 15.08862422 70212,6917.812,95.436,540.612,538.742,0.0
53775.0,STARLINK-4722,PAYLOAD,2023-12-18 04:39:39,15.08861106,0.0001448,53.2165,321.7979,91.9423,268.1735,0.00039502,6.008e-05,0.0,0 STARLINK-4722,1 53775U 22111C   23352.19420698  .00006008  00000-0  39502-3 0  9994,2 53775  53.2165 321.7979 0001448  91.9423 268.1735 15.08861106 71033,6917.816,95.436,540.683,538.679,0.0
53775.0,STARLINK-4722,PAYLOAD,2023-12-19 02:55:04,15.08831493,0.000122,53.2172,317.6206,85.345,274.7681,-9.4536e-05,-1.792e-05,0.0,0 STARLINK-4722,1 53775U 22111C   23353.12158051 -.00001792  00000-0 -94536-4 0  9995,2 53775  53.2172 317.6206 0001220  85.3450 274.7681 15.08831493 70367,6917.906,95.438,540.615,538.927,0.0
53775.0,STARLINK-4722,PAYLOAD,2023-12-19 04:30:27,15.08833831,0.000124,53.2169,317.3277,81.0829,279.0303,-5.2119e-05,-1.117e-05,0.0,0 STARLINK-4722,1 53775U 22111C   23353.18782059 -.00001117  00000-0 -52119-4 0  9994,2 53775  53.2169 317.3277 0001240  81.0829 279.0303 15.08833831 71181,6917.899,95.438,540.622,538.906,0.0
53775.0,STARLINK-4722,PAYLOAD,2023-12-20 02:45:51,15.08841381,0.000116,53.2169,313.1678,84.2821,275.8303,0.00032661,4.914e-05,0.0,0 STARLINK-4722,1 53775U 22111C   23354.11518316  .00004914  00000-0  32661-3 0  9996,2 53775  53.2169 313.1678 0001160  84.2821 275.8303 15.08841381 70517,6917.876,95.437,540.544,538.939,0.0
53775.0,STARLINK-4722,PAYLOAD,2023-12-21 02:36:38,15.08855115,0.00011,53.2167,308.7089,85.9203,274.1915,0.00051326,7.893e-05,0.0,0 STARLINK-4722,1 53775U 22111C   23355.10878036  .00007893  00000-0  51326-3 0  9992,2 53775  53.2167 308.7089 0001100  85.9203 274.1915 15.08855115 71474,6917.834,95.437,540.46,538.938,0.0
53775.0,STARLINK-4722,PAYLOAD,2023-12-22 02:27:26,15.0884092,0.0001562,53.2176,304.2456,75.3079,284.8087,0.0001594,2.25e-05,0.0,0 STARLINK-4722,1 53775U 22111C   23356.10238625  .00002250  00000-0  15940-3 0  9991,2 53775  53.2176 304.2456 0001562  75.3079 284.8087 15.08840920 70812,6917.878,95.437,540.823,538.662,0.0
53775.0,STARLINK-4722,PAYLOAD,2023-12-23 03:53:36,15.08842421,0.0001712,53.2166,299.4897,80.0601,280.0584,0.00055554,8.565e-05,0.0,0 STARLINK-4722,1 53775U 22111C   23357.16223044  .00008565  00000-0  55554-3 0  9997,2 53775  53.2166 299.4897 0001712  80.0601 280.0584 15.08842421 70971,6917.873,95.437,540.922,538.554,0.0
53775.0,STARLINK-4722,PAYLOAD,2023-12-23 19:47:28,15.08836192,0.0001638,53.2172,296.5144,87.7,272.418,0.0001555,2.187e-05,0.0,0 STARLINK-4722,1 53775U 22111C   23357.82463186  .00002187  00000-0  15550-3 0  9999,2 53775  53.2172 296.5144 0001638  87.7000 272.4180 15.08836192 71072,6917.892,95.438,540.89,538.624,0.0
53775.0,STARLINK-4722,PAYLOAD,2023-12-24 05:19:45,15.08911829,0.0001536,53.2163,294.7319,70.6462,289.4696,0.0022134,0.00035184,0.0,0 STARLINK-4722,1 53775U 22111C   23358.22205113  .00035184  00000-0  22134-2 0  9996,2 53775  53.2163 294.7319 0001536  70.6462 289.4696 15.08911829 71134,6917.661,95.433,540.588,538.463,0.0
53775.0,STARLINK-4722,PAYLOAD,2023-12-25 00:24:23,15.08827364,0.0001844,53.2174,291.1606,77.2658,282.8541,-0.00071446,-0.00011637,0.0,0 STARLINK-4722,1 53775U 22111C   23359.01693838 -.00011637  00000-0 -71446-3 0  9999,2 53775  53.2174 291.1606 0001844  77.2658 282.8541 15.08827364 71257,6917.919,95.438,541.06,538.508,0.0
53775.0,STARLINK-4722,PAYLOAD,2023-12-25 06:45:56,15.08815529,0.0001591,53.2176,289.9714,79.7019,280.4153,-0.00083498,-0.00013543,0.0,0 STARLINK-4722,1 53775U 22111C   23359.28190230 -.00013543  00000-0 -83498-3 0  9994,2 53775  53.2176 289.9714 0001591  79.7019 280.4153 15.08815529 72109,6917.955,95.439,540.921,538.72,0.0
53775.0,STARLINK-4722,PAYLOAD,2023-12-25 22:39:47,15.08836174,0.0001714,53.217,286.9984,95.078,265.0408,3.3568e-05,2.46e-06,0.0,0 STARLINK-4722,1 53775U 22111C   23359.94430550  .00000246  00000-0  33568-4 0  9997,2 53775  53.2170 286.9984 0001714  95.0780 265.0408 15.08836174 72204,6917.892,95.438,540.943,538.571,0.0
53775.0,STARLINK-4722,PAYLOAD,2023-12-26 01:50:34,15.08841446,0.0001764,53.2164,286.4047,90.7434,269.376,0.001644,0.00025974,0.0,0 STARLINK-4722,1 53775U 22111C   23360.07679234  .00025974  00000-0  16440-2 0  9990,2 53775  53.2164 286.4047 0001764  90.7434 269.3760 15.08841446 71413,6917.876,95.437,540.961,538.521,0.0
